{"type": "FeatureCollection", "features": [ {"type": "Feature", "properties": {"norad_id": 57401, "name": "TIANMU-1 09", "group": "weather", "lat": 46.59964260037397, "lon": -144.4227064763306, "alt_km": 473.9389159630082, "timestamp": "2025-12-04T10:51:49.749828+00:00", "meta": {"OBJECT_NAME": "TIANMU-1 09", "OBJECT_ID": "2023-101C", "EPOCH": "2025-12-04T03:59:51.593568", "MEAN_MOTION": 15.27885379, "ECCENTRICITY": 0.0006755, "INCLINATION": 97.2837, "RA_OF_ASC_NODE": 27.5245, "ARG_OF_PERICENTER": 107.2359, "MEAN_ANOMALY": 252.9621, "EPHEMERIS_TYPE": 0, "CLASSIFICATION_TYPE": "U", "NORAD_CAT_ID": 57401, "ELEMENT_SET_NO": 999, "REV_AT_EPOCH": 13184, "BSTAR": 0.00060406, "MEAN_MOTION_DOT": 0.000164, "MEAN_MOTION_DDOT": 0}, "tle": {"line1": "1 57401U 23101C   25338.16656937  .00016400  00000+0  60406-3 0  9997", "line2": "2 57401  97.2837  27.5245 0006755 107.2359 252.9621 15.27885379131849"}}, "geometry": {"type": "Point", "coordinates": [-144.4227064763306, 46.59964260037397]}}, {"type": "Feature", "properties": {"norad_id": 57402, "name": "TIANMU-1 10", "group": "weather", "lat": -54.45602834356714, "lon": 38.969653501167414, "alt_km": 494.7792671887373, "timestamp": "2025-12-04T10:51:49.749838+00:00", "meta": {"OBJECT_NAME": "TIANMU-1 10", "OBJECT_ID": "2023-101D", "EPOCH": "2025-12-04T04:49:03.650880", "MEAN_MOTION": 15.27877814, "ECCENTRICITY": 0.0008531, "INCLINATION": 97.2918, "RA_OF_ASC_NODE": 28.3986, "ARG_OF_PERICENTER": 108.0745, "MEAN_ANOMALY": 252.1424, "EPHEMERIS_TYPE": 0, "CLASSIFICATION_TYPE": "U", "NORAD_CAT_ID": 57402, "ELEMENT_SET_NO": 999, "REV_AT_EPOCH": 13184, "BSTAR": 0.00059184, "MEAN_MOTION_DOT": 0.00016068, "MEAN_MOTION_DDOT": 0}, "tle": {"line1": "1 57402U 23101D   25338.20073670  .00016068  00000+0  59184-3 0  9991", "line2": "2 57402  97.2918  28.3986 0008531 108.0745 252.1424 15.27877814131841"}}, "geometry": {"type": "Point", "coordinates": [38.969653501167414, -54.45602834356714]}}, {"type": "Feature", "properties": {"norad_id": 57490, "name": "FENGYUN 3F", "group": "weather", "lat": -3.8831630047722103, "lon": -133.7167071229199, "alt_km": 829.1856574138155, "timestamp": "2025-12-04T10:51:49.749848+00:00", "meta": {"OBJECT_NAME": "FENGYUN 3F", "OBJECT_ID": "2023-111A", "EPOCH": "2025-12-04T04:55:38.131680", "MEAN_MOTION": 14.19890126, "ECCENTRICITY": 6.82e-05, "INCLINATION": 98.7094, "RA_OF_ASC_NODE": 46.6361, "ARG_OF_PERICENTER": 88.1308, "MEAN_ANOMALY": 271.9946, "EPHEMERIS_TYPE": 0, "CLASSIFICATION_TYPE": "U", "NORAD_CAT_ID": 57490, "ELEMENT_SET_NO": 999, "REV_AT_EPOCH": 12119, "BSTAR": 0.00011465, "MEAN_MOTION_DOT": 2e-06, "MEAN_MOTION_DDOT": 0}, "tle": {"line1": "1 57490U 23111A   25338.20530245  .00000200  00000+0  11465-3 0  9996", "line2": "2 57490  98.7094  46.6361 0000682  88.1308 271.9946 14.19890126121197"}}, "geometry": {"type": "Point", "coordinates": [-133.7167071229199, -3.8831630047722103]}}, {"type": "Feature", "properties": {"norad_id": 58584, "name": "ARKTIKA-M 2", "group": "weather", "lat": 51.825006975053356, "lon": -144.2276445002249, "alt_km": 30091.84892321417, "timestamp": "2025-12-04T10:51:49.749860+00:00", "meta": {"OBJECT_NAME": "ARKTIKA-M 2", "OBJECT_ID": "2023-198A", "EPOCH": "2025-12-03T08:34:19.284960", "MEAN_MOTION": 2.00605176, "ECCENTRICITY": 0.68642509, "INCLINATION": 63.2223, "RA_OF_ASC_NODE": 175.9121, "ARG_OF_PERICENTER": 268.1397, "MEAN_ANOMALY": 18.842, "EPHEMERIS_TYPE": 0, "CLASSIFICATION_TYPE": "U", "NORAD_CAT_ID": 58584, "ELEMENT_SET_NO": 999, "REV_AT_EPOCH": 1439, "BSTAR": 0, "MEAN_MOTION_DOT": 2.24e-06, "MEAN_MOTION_DDOT": 0}, "tle": {"line1": "1 58584U 23198A   25337.35716765  .00000224  00000+0  00000+0 0  9999", "line2": "2 58584  63.2223 175.9121 6864250 268.1397  18.8420  2.00605176 14390"}}, "geometry": {"type": "Point", "coordinates": [-144.2276445002249, 51.825006975053356]}}, {"type": "Feature", "properties": {"norad_id": 58645, "name": "TIANMU-1 11", "group": "weather", "lat": -46.59201461185699, "lon": 170.3681156147775, "alt_km": 501.9596747756859, "timestamp": "2025-12-04T10:51:49.749872+00:00", "meta": {"OBJECT_NAME": "TIANMU-1 11", "OBJECT_ID": "2023-205A", "EPOCH": "2025-12-04T00:25:05.814624", "MEAN_MOTION": 15.24431871, "ECCENTRICITY": 0.00087827, "INCLINATION": 97.3609, "RA_OF_ASC_NODE": 357.7955, "ARG_OF_PERICENTER": 344.6679, "MEAN_ANOMALY": 15.4292, "EPHEMERIS_TYPE": 0, "CLASSIFICATION_TYPE": "U", "NORAD_CAT_ID": 58645, "ELEMENT_SET_NO": 999, "REV_AT_EPOCH": 10776, "BSTAR": 0.00047697898, "MEAN_MOTION_DOT": 0.00011651, "MEAN_MOTION_DDOT": 0}, "tle": {"line1": "1 58645U 23205A   25338.01742841  .00011651  00000+0  47698-3 0  9998", "line2": "2 58645  97.3609 357.7955 0008782 344.6679  15.4292 15.24431871107769"}}, "geometry": {"type": "Point", "coordinates": [170.3681156147775, -46.59201461185699]}}, {"type": "Feature", "properties": {"norad_id": 58646, "name": "TIANMU-1 12", "group": "weather", "lat": 79.49173278074053, "lon": -46.141514581362486, "alt_km": 487.1887362817488, "timestamp": "2025-12-04T10:51:49.749882+00:00", "meta": {"OBJECT_NAME": "TIANMU-1 12", "OBJECT_ID": "2023-205B", "EPOCH": "2025-12-03T23:28:31.077408", "MEAN_MOTION": 15.24344811, "ECCENTRICITY": 0.00066142, "INCLINATION": 97.3597, "RA_OF_ASC_NODE": 357.5652, "ARG_OF_PERICENTER": 330.5443, "MEAN_ANOMALY": 29.5421, "EPHEMERIS_TYPE": 0, "CLASSIFICATION_TYPE": "U", "NORAD_CAT_ID": 58646, "ELEMENT_SET_NO": 999, "REV_AT_EPOCH": 10774, "BSTAR": 0.00047843524, "MEAN_MOTION_DOT": 0.00011652, "MEAN_MOTION_DDOT": 0}, "tle": {"line1": "1 58646U 23205B   25337.97813747  .00011652  00000+0  47844-3 0  9991", "line2": "2 58646  97.3597 357.5652 0006614 330.5443  29.5421 15.24344811107748"}}, "geometry": {"type": "Point", "coordinates": [-46.141514581362486, 79.49173278074053]}}, {"type": "Feature", "properties": {"norad_id": 58647, "name": "TIANMU-1 13", "group": "weather", "lat": -75.57944203610124, "lon": 148.04036896922412, "alt_km": 497.09505472987894, "timestamp": "2025-12-04T10:51:49.749892+00:00", "meta": {"OBJECT_NAME": "TIANMU-1 13", "OBJECT_ID": "2023-205C", "EPOCH": "2025-12-04T00:17:02.912928", "MEAN_MOTION": 15.2435193, "ECCENTRICITY": 0.00063622, "INCLINATION": 97.3624, "RA_OF_ASC_NODE": 357.7956, "ARG_OF_PERICENTER": 306.7238, "MEAN_ANOMALY": 53.3415, "EPHEMERIS_TYPE": 0, "CLASSIFICATION_TYPE": "U", "NORAD_CAT_ID": 58647, "ELEMENT_SET_NO": 999, "REV_AT_EPOCH": 10774, "BSTAR": 0.00050630774, "MEAN_MOTION_DOT": 0.00012338, "MEAN_MOTION_DDOT": 0}, "tle": {"line1": "1 58647U 23205C   25338.01183927  .00012338  00000+0  50631-3 0  9998", "line2": "2 58647  97.3624 357.7956 0006362 306.7238  53.3415 15.24351930107744"}}, "geometry": {"type": "Point", "coordinates": [148.04036896922412, -75.57944203610124]}}, {"type": "Feature", "properties": {"norad_id": 58648, "name": "TIANMU-1 14", "group": "weather", "lat": -10.859013352200147, "lon": -0.994986153404713, "alt_km": 493.2962947058768, "timestamp": "2025-12-04T10:51:49.749905+00:00", "meta": {"OBJECT_NAME": "TIANMU-1 14", "OBJECT_ID": "2023-205D", "EPOCH": "2025-12-03T23:53:00.476160", "MEAN_MOTION": 15.24336229, "ECCENTRICITY": 0.00072616, "INCLINATION": 97.3557, "RA_OF_ASC_NODE": 357.136, "ARG_OF_PERICENTER": 311.1361, "MEAN_ANOMALY": 48.9249, "EPHEMERIS_TYPE": 0, "CLASSIFICATION_TYPE": "U", "NORAD_CAT_ID": 58648, "ELEMENT_SET_NO": 999, "REV_AT_EPOCH": 10774, "BSTAR": 0.00049057188, "MEAN_MOTION_DOT": 0.00011948, "MEAN_MOTION_DDOT": 0}, "tle": {"line1": "1 58648U 23205D   25337.99514440  .00011948  00000+0  49057-3 0  9999", "line2": "2 58648  97.3557 357.1360 0007261 311.1361  48.9249 15.24336229107748"}}, "geometry": {"type": "Point", "coordinates": [-0.994986153404713, -10.859013352200147]}}, {"type": "Feature", "properties": {"norad_id": 58660, "name": "TIANMU-1 19", "group": "weather", "lat": 34.063157160068315, "lon": -85.42369640003213, "alt_km": 483.1540299172484, "timestamp": "2025-12-04T10:51:49.749915+00:00", "meta": {"OBJECT_NAME": "TIANMU-1 19", "OBJECT_ID": "2023-208A", "EPOCH": "2025-12-03T23:13:26.152320", "MEAN_MOTION": 15.2759571, "ECCENTRICITY": 0.00040772, "INCLINATION": 97.4394, "RA_OF_ASC_NODE": 89.024, "ARG_OF_PERICENTER": 292.3697, "MEAN_ANOMALY": 67.711, "EPHEMERIS_TYPE": 0, "CLASSIFICATION_TYPE": "U", "NORAD_CAT_ID": 58660, "ELEMENT_SET_NO": 999, "REV_AT_EPOCH": 10748, "BSTAR": 0.00063257974, "MEAN_MOTION_DOT": 0.00017019, "MEAN_MOTION_DDOT": 0}, "tle": {"line1": "1 58660U 23208A   25337.96766380  .00017019  00000+0  63258-3 0  9999", "line2": "2 58660  97.4394  89.0240 0004077 292.3697  67.7110 15.27595710107486"}}, "geometry": {"type": "Point", "coordinates": [-85.42369640003213, 34.063157160068315]}}, {"type": "Feature", "properties": {"norad_id": 58661, "name": "TIANMU-1 20", "group": "weather", "lat": -4.313606990389725, "lon": -90.61700345176676, "alt_km": 485.02672579985483, "timestamp": "2025-12-04T10:51:49.749925+00:00", "meta": {"OBJECT_NAME": "TIANMU-1 20", "OBJECT_ID": "2023-208B", "EPOCH": "2025-12-03T23:03:49.713984", "MEAN_MOTION": 15.28787695, "ECCENTRICITY": 0.00064566, "INCLINATION": 97.4331, "RA_OF_ASC_NODE": 89.4563, "ARG_OF_PERICENTER": 302.7771, "MEAN_ANOMALY": 57.2846, "EPHEMERIS_TYPE": 0, "CLASSIFICATION_TYPE": "U", "NORAD_CAT_ID": 58661, "ELEMENT_SET_NO": 999, "REV_AT_EPOCH": 10755, "BSTAR": 0.00060069028, "MEAN_MOTION_DOT": 0.00016761, "MEAN_MOTION_DDOT": 0}, "tle": {"line1": "1 58661U 23208B   25337.96099206  .00016761  00000+0  60069-3 0  9996", "line2": "2 58661  97.4331  89.4563 0006456 302.7771  57.2846 15.28787695107556"}}, "geometry": {"type": "Point", "coordinates": [-90.61700345176676, -4.313606990389725]}}]}